ONEWEB-0195             
1 48240U 21031AG  23232.73885679  .00000150  00000+0  37036-3 0  9997
2 48240  87.9041 135.0008 0002420  78.0280 282.1121 13.14505742112642
ONEWEB-0201             
1 48241U 21031AH  23233.26744879  .00000186  00000+0  46644-3 0  9997
2 48241  87.9043 134.9358 0002030  75.5338 284.6017 13.14505597112946
ONEWEB-0207             
1 48242U 21031AJ  23232.25256287  .00000273  00000+0  70290-3 0  9998
2 48242  87.9041 135.1047 0001927  70.5001 289.6337 13.14505954112722
ONEWEB-0208             
1 48243U 21031AK  23233.29601718 -.00000108  00000+0 -32602-3 0  9991
2 48243  87.9039 134.9153 0002261  77.5092 282.6291 13.14504270112872
ONEWEB-0200             
1 48244U 21031AL  23232.72724237  .00000280  00000+0  71987-3 0  9999
2 48244  87.9037 135.0157 0002280  78.6328 281.5058 13.14500464112737
ONEWEB-0217             
1 48245U 21031AM  23233.27697819  .00000050  00000+0  10018-3 0  9999
2 48245  87.9041 134.8909 0002413  79.9609 280.1793 13.14500041112753
ONEWEB-0211             
1 48767U 21045A   23232.68239457 -.00000063  00000+0 -20083-3 0  9996
2 48767  87.8977 104.5871 0001941  83.0015 277.1336 13.15549633109928
ONEWEB-0223             
1 48768U 21045B   23232.17111585  .00000227  00000+0  56932-3 0  9994
2 48768  87.8976 104.6945 0002144  92.7356 267.4020 13.15548377109850
